[{"OBJECT_NAME":"STARLINK-31278","OBJECT_ID":"2024-044M","EPOCH":"2026-03-09T12:44:23.591904","MEAN_MOTION":15.27566797,"ECCENTRICITY":0.00019948,"INCLINATION":43.0038,"RA_OF_ASC_NODE":107.7183,"ARG_OF_PERICENTER":287.1664,"MEAN_ANOMALY":72.8969,"EPHEMERIS_TYPE":0,"CLASSIFICATION_TYPE":"U","NORAD_CAT_ID":59163,"ELEMENT_SET_NO":999,"REV_AT_EPOCH":11354,"BSTAR":5.1076473e-5,"MEAN_MOTION_DOT":1.143e-5,"MEAN_MOTION_DDOT":0},{"OBJECT_NAME":"FLOCK 4G-2","OBJECT_ID":"2025-009BE","EPOCH":"2026-03-09T15:53:23.273952","MEAN_MOTION":15.2767526,"ECCENTRICITY":0.00031811,"INCLINATION":97.4044,"RA_OF_ASC_NODE":151.2221,"ARG_OF_PERICENTER":329.2677,"MEAN_ANOMALY":30.8376,"EPHEMERIS_TYPE":0,"CLASSIFICATION_TYPE":"U","NORAD_CAT_ID":62661,"ELEMENT_SET_NO":999,"REV_AT_EPOCH":12132,"BSTAR":0.00051068481,"MEAN_MOTION_DOT":0.00013752,"MEAN_MOTION_DDOT":0}]
